GALAXY 25 (G-25)        
1 24812U 97026A   24188.84555388  .00000079  00000+0  00000+0 0  9994
2 24812   5.5893  75.9045 0011016   2.2829 208.2527  0.99091166 99185
INTELSAT 5 (IS-5)       
1 24916U 97046A   24189.51604926 -.00000072  00000+0  00000+0 0  9993
2 24916   8.8449  55.3028 0003371  95.4277 127.1514  1.00272008 98501
GALAXY 11 (G-11)        
1 26038U 99071A   24189.87237039 -.00000062  00000+0  00000+0 0  9995
2 26038   4.9055  79.0057 0000665 161.6447 166.0013  1.00270816 89962
INTELSAT 9 (IS-9)       
1 26451U 00043A   24189.83897097  .00000092  00000+0  00000+0 0  9999
2 26451   8.8310  55.4941 0002565  79.5106 107.6780  1.00387476 87734
INTELSAT 1R (IS-1R)     
1 26608U 00072A   24189.47410508 -.00000147  00000+0  00000+0 0  9995
2 26608   6.3147  72.5038 0000504 119.0985  62.0854  1.00271351 34206
INTELSAT 10 (IS-10)     
1 26766U 01019A   24190.09979657 -.00000316  00000+0  00000+0 0  9995
2 26766   7.3732  66.4490 0003190  52.1829 308.1526  1.00117633 84829
INTELSAT 901 (IS-901)   
1 26824U 01024A   24189.83070383 -.00000206  00000+0  00000+0 0  9992
2 26824   0.0183  30.9720 0000607  65.8647 101.0017  1.00267742 84478
INTELSAT 902 (IS-902)   
1 26900U 01039A   24189.53992821 -.00000289  00000+0  00000+0 0  9991
2 26900   4.3120  80.4115 0004887  43.8892 305.9609  1.00270061 83571
INTELSAT 904 (IS-904)   
1 27380U 02007A   24190.14840822 -.00000220  00000+0  00000+0 0  9997
2 27380   5.1326  77.6088 0002683  27.3563 205.5366  1.00272627 81979
DIRECTV 5 (TEMPO 1)     
1 27426U 02023A   24190.17201102 -.00000061  00000+0  00000+0 0  9994
2 27426   3.0547  84.1955 0003021  29.8932 124.3228  1.00271759 81196
INTELSAT 905 (IS-905)   
1 27438U 02027A   24189.47343745 -.00000192  00000+0  00000+0 0  9997
2 27438   4.9565  78.2732 0002395  34.3357 319.2370  1.00271061 44245
GALAXY 3C (G-3C)        
1 27445U 02030A   24189.53105190 -.00000157  00000+0  00000+0 0  9997
2 27445   1.8981  86.5775 0003440  35.0371 260.6733  1.00271404 39377
INTELSAT 906 (IS-906)   
1 27513U 02041A   24189.29771838  .00000007  00000+0  00000+0 0  9999
2 27513   3.9871  81.6602 0003434  13.3035   2.0885  1.00270992 79919
GALAXY 23 (G-23)        
1 27854U 03034A   24189.74056605  .00000008  00000+0  00000+0 0  9999
2 27854   1.3582  88.8126 0002717  18.6743 324.3977  1.00271237 81430
GALAXY 13 (HORIZONS-1)  
1 27954U 03044A   24189.43363812  .00000129  00000+0  00000+0 0  9992
2 27954   0.0155  50.5787 0000252 339.7509 261.6376  1.00272163 39451
INTELSAT 10-02          
1 28358U 04022A   24189.97910701 -.00000014  00000+0  00000+0 0  9996
2 28358   0.0380 258.1396 0000891 209.7955 169.9723  1.00270614 73512
XM-3 (RHYTHM)           
1 28626U 05008A   24189.38452376 -.00000208  00000+0  00000+0 0  9998
2 28626   0.0056 342.6588 0004649 243.3791 113.0528  1.00270554 35502
DIRECTV 8               
1 28659U 05019A   24189.74091414 -.00000002  00000+0  00000+0 0  9990
2 28659   0.0183  33.4712 0002766  81.2413 319.1430  1.00272065 70072
GALAXY 28 (G-28)        
1 28702U 05022A   24190.18174285 -.00000189  00000+0  00000+0 0  9997
2 28702   1.4638  87.7486 0001550 140.7796  34.4980  1.00270032 69714
GALAXY 14 (G-14)        
1 28790U 05030A   24190.12892095  .00000150  00000+0  00000+0 0  9990
2 28790   3.1838  83.5987 0001276  22.8651 259.3915  1.00272948 69193
SPACEWAY 2              
1 28903U 05046B   24189.43954949  .00000097  00000+0  00000+0 0  9992
2 28903   3.6553  80.0483 0000466 192.0843  33.0808  1.00272340 44225
GALAXY 16 (G-16)        
1 29236U 06023A   24189.81634510 -.00000130  00000+0  00000+0 0  9998
2 29236   0.0192  76.4335 0002483  41.7309   2.9561  1.00271223 66154
DIRECTV 9S              
1 29494U 06043A   24190.17383850 -.00000116  00000+0  00000+0 0  9999
2 29494   0.5838  89.3557 0002781  22.5615 136.0679  1.00271535 64994
GALAXY 17 (G-17)        
1 31307U 07016B   24189.83799177 -.00000210  00000+0  00000+0 0  9995
2 31307   1.1684  89.1339 0004583  36.0302  17.7593  1.00270741 62960
DIRECTV 10              
1 31862U 07032A   24189.67258736 -.00000106  00000+0  00000+0 0  9996
2 31862   0.0062 288.3550 0000428  19.6952 117.3910  1.00266703 62293
INTELSAT 11 (IS-11)     
1 32253U 07044B   24189.82757102 -.00000273  00000+0  00000+0 0  9997
2 32253   1.7169  87.5690 0002931  27.8627  65.7466  1.00271254 61411
HORIZONS-2              
1 32388U 07063B   24189.53522898 -.00000257  00000+0  00000+0 0  9999
2 32388   0.7636  89.4721 0001901  29.1417 286.2372  1.00270925 60691
DIRECTV 11              
1 32729U 08013A   24189.67328354 -.00000129  00000+0  00000+0 0  9998
2 32729   0.0498 200.1793 0000069 257.5734 331.5373  1.00269358 59829
GALAXY 18 (G-18)        
1 32951U 08024A   24189.74013094  .00000022  00000+0  00000+0 0  9998
2 32951   0.0185  43.4418 0003126  79.1873 306.9808  1.00272145 58972
INTELSAT 25 (IS-25)     
1 33153U 08034A   24189.47204509 -.00000228  00000+0  00000+0 0  9996
2 33153   0.8713  89.1269 0002961  30.7521 304.4601  1.00271460 58571
GALAXY 19 (G-19)        
1 33376U 08045A   24189.81686725 -.00000142  00000+0  00000+0 0  9992
2 33376   0.0354 276.8390 0002562 192.8054  13.6684  1.00271429 57720
